7P/Pons-Winnecke,e,22.3646,93.3807,172.5600,3.415703,0.1561291,0.63854634,293.7903,03/29.0/2020,2000,g  9.0,4.0
# From MPC 75715
8P/Tuttle,e,54.9121,270.2061,207.4959,5.701141,0.0724038,0.81999265,322.5785,03/29.0/2020,2000,g  9.0,4.0
# From MPEC 2019-JE2
9P/Tempel,e,10.4729,68.7365,179.3075,3.147384,0.1765141,0.50954460,235.4318,03/29.0/2020,2000,g  9.0,4.0
# From MPC114607
10P/Tempel,e,12.0397,117.8086,195.5075,3.060857,0.1840515,0.53844251,293.6839,03/29.0/2020,2000,g  5.0,10.0
# From MPEC 2017-L52
11P/Tempel-Swift-LINEAR,e,14.4216,238.9337,167.8959,3.284597,0.1655697,0.57709375,319.9033,03/29.0/2020,2000,g  9.0,4.0
# From  27, 604
12P/Pons-Brooks,e,74.0664,255.7024,199.0601,17.07182,0.0139728,0.95427074,339.2604,03/29.0/2020,2000,g  5.0,6.0
# From  27, 604
13P/Olbers,e,44.6272,85.8408,64.5790,16.66498,0.0144876,0.92976228,337.4663,03/29.0/2020,2000,g  5.0,6.0
# From MPC100283
14P/Wolf,e,27.9006,202.0881,158.9800,4.259467,0.1121169,0.35649994,95.0746,03/29.0/2020,2000,g  5.5,12.0
# From MPC 92276
15P/Finlay,e,6.7974,13.7210,347.8404,3.503815,0.1502769,0.71689959,289.1265,03/29.0/2020,2000,g 12.0,4.0
# From MPC 92276
16P/Brooks,e,3.0081,138.9130,245.1350,3.660940,0.1407068,0.48747279,305.8412,03/29.0/2020,2000,g  7.5,10.0
# From MPC114607
17P/Holmes,e,19.0237,326.6442,24.5379,3.636786,0.1421110,0.42823837,313.3881,03/29.0/2020,2000,g 10.0,6.0
# From MPC 92984
19P/Borrelly,e,29.5328,74.5239,351.8003,3.602641,0.1441360,0.63920696,262.8273,03/29.0/2020,2000,g  4.5,10.0
# From MPC111773
21P/Giacobini-Zinner,e,32.0065,195.3722,172.8476,3.496303,0.1507615,0.71055164,85.2824,03/29.0/2020,2000,g  9.0,6.0
# From MPC 94283
22P/Kopff,e,4.7417,120.8362,162.9471,3.443396,0.1542495,0.54885342,249.1010,03/29.0/2020,2000,g  3.0,10.4
# From MPC 14747
23P/Brorsen-Metcalf,e,19.1510,312.3485,128.8933,16.95658,0.0141155,0.97094138,0.0000,08/15.4990/1989,2000,g 10.0,6.0
# From MPC110085
24P/Schaumasse,e,11.7094,79.5118,57.7159,4.065139,0.1202516,0.70773838,103.6798,03/29.0/2020,2000,g  6.5,14.0
# From MPC 94674
26P/Grigg-Skjellerup,e,22.4467,211.5360,2.1939,3.013779,0.1883810,0.64074459,102.5312,03/29.0/2020,2000,g 12.0,16.0
# From MPC 78188
27P/Crommelin,e,29.1177,250.5754,196.0086,9.191967,0.0353664,0.91792326,112.1097,03/29.0/2020,2000,g 12.0,8.0
# From MPC114607
28P/Neujmin,e,14.3113,346.3449,347.4343,6.970318,0.0535581,0.77362307,341.3640,03/29.0/2020,2000,g  8.5,6.0
# From MPEC 2019-VB6
29P/Schwassmann-Wachmann,e,9.3670,312.3799,48.0958,6.031446,0.0665383,0.04383509,25.4812,03/29.0/2020,2000,g  4.0,4.0
# From MPC110085
30P/Reinmuth,e,8.3762,118.9738,12.8853,3.734966,0.1365445,0.51544715,129.1334,03/29.0/2020,2000,g  9.5,6.0
# From MPC108597
31P/Schwassmann-Wachmann,e,4.5473,114.1133,18.3100,4.242272,0.1127993,0.19258258,30.1321,03/29.0/2020,2000,g  5.0,8.0
# From MPC 92276
32P/Comas Sola,e,9.9373,57.5943,53.3482,4.497813,0.1033242,0.55718715,205.7223,03/29.0/2020,2000,g  6.5,8.0
# From MPEC 2013-O31
33P/Daniel,e,22.3444,66.3650,20.6414,4.081139,0.1195452,0.45308184,157.9837,03/29.0/2020,2000,g 10.0,12.0
# From  15, 452
35P/Herschel-Rigollet,e,64.593,356.302,29.108,28.5693,0.006454,0.9733898,0.000,12/24.3169/2091,2000,g  9.0,4.0
# From MPC105240
36P/Whipple,e,9.9529,181.8638,200.7671,4.129904,0.1174341,0.26835442,352.5289,03/29.0/2020,2000,g  8.5,6.0
# From MPEC 2018-HA5
37P/Forbes,e,8.9567,314.5667,330.0650,3.458817,0.1532191,0.53416251,106.4501,03/29.0/2020,2000,g 10.5,4.8
# From MPEC 2018-S50
38P/Stephan-Oterma,e,18.3536,77.9966,359.5553,11.26287,0.0260754,0.85899673,13.1442,03/29.0/2020,2000,g  3.5,12.0
# From MPC115887
39P/Oterma,e,1.5612,299.2559,94.8905,7.409614,0.0488664,0.22370552,304.3465,03/29.0/2020,2000,g  7.0,6.0
# From MPC100283
40P/Vaisala,e,11.4711,133.7886,47.4639,4.950067,0.0894927,0.63017041,175.6032,03/29.0/2020,2000,g  5.5,12.0
# From MPC105240
41P/Tuttle-Giacobini-Kresak,e,9.2216,141.0040,62.2600,3.085785,0.1818258,0.66042946,196.6766,03/29.0/2020,2000,g 10.0,16.0
# From MPC 94283
42P/Neujmin,e,3.9884,150.1995,147.1519,4.873015,0.0916236,0.58540869,166.2587,03/29.0/2020,2000,g 13.0,6.0
# From MPC102956
43P/Wolf-Harrington,e,9.4343,244.5876,223.9416,4.302130,0.1104533,0.44079129,144.0496,03/29.0/2020,2000,g  8.0,6.0
# From MPC 89313
44P/Reinmuth,e,5.8982,286.4827,58.1228,3.688955,0.1391070,0.42698388,254.8771,03/29.0/2020,2000,g  8.3,6.0
# From MPC103849
45P/Honda-Mrkos-Pajdusakova,e,4.3257,87.6974,327.9744,3.049549,0.1850762,0.81775543,219.7669,03/29.0/2020,2000,g 13.5,8.0
# From MPC114607
46P/Wirtanen,e,11.7445,82.1547,356.3688,3.091924,0.1812846,0.65844556,85.5946,03/29.0/2020,2000,g 14.0,6.0
# From NK 2718
47P/Ashbrook-Jackson,e,13.0326,356.9327,357.6036,4.125558,0.1176197,0.31774671,120.2929,03/29.0/2020,2000,g  9.0,4.0
# From MPEC 2015-M77
48P/Johnson,e,12.2079,110.1269,216.6077,3.500170,0.1505117,0.42728494,89.4980,03/29.0/2020,2000,g  9.0,4.0
# From MPEC 2015-M77
49P/Arend-Rigaux,e,19.0453,118.7995,332.9675,3.569827,0.1461280,0.59883619,91.0015,03/29.0/2020,2000,g  9.0,4.0
# From MPEC 2015-S97
50P/Arend,e,19.0964,355.1544,49.3591,4.089664,0.1191716,0.52847727,180.3235,03/29.0/2020,2000,g  9.5,6.0
# From NK 3013
51P-A/Harrington,e,5.4254,83.6760,269.2339,3.708629,0.1380016,0.54283922,233.4314,03/29.0/2020,2000,g 16.0,8.0
# From NK 3014
51P-A/Harrington,e,5.4247,83.6916,269.1946,3.709653,0.1379444,0.54291116,233.1828,03/29.0/2020,2000,g 10.0,8.0
# From NK 3014
51P-A/Harrington,e,5.4247,83.6916,269.1946,3.709634,0.1379455,0.54290807,233.1859,03/29.0/2020,2000,g 10.0,8.0
# From MPEC 2015-L08
51P-D/Harrington,e,5.4262,83.6815,269.1840,3.708719,0.1379965,0.54285338,233.4272,03/29.0/2020,2000,g 16.0,8.0
# From MPEC 2015-L08
51P-D/Harrington,e,5.4262,83.6805,269.1848,3.708707,0.1379972,0.54285396,233.4323,03/29.0/2020,2000,g 16.0,8.0
# From NK 3013
51P-D/Harrington,e,5.4255,83.6763,269.2336,3.708628,0.1380016,0.54283940,233.4316,03/29.0/2020,2000,g 16.0,8.0
# From NK 3013
51P-D/Harrington,e,5.4255,83.6763,269.2336,3.708628,0.1380016,0.54283954,233.4316,03/29.0/2020,2000,g 16.0,8.0
# From MPC 88330
52P/Harrington-Abell,e,10.2313,336.8379,139.6022,3.861997,0.1298632,0.53968370,287.8834,03/29.0/2020,2000,g 13.5,6.0
# From MPC100283
53P/Van Biesbroeck,e,6.6077,148.8445,134.3768,5.423835,0.0780269,0.55232080,111.4346,03/29.0/2020,2000,g  7.7,4.8
# From MPC 89011
54P/de Vico-Swift-NEAT,e,6.0606,358.8167,1.7661,3.793595,0.1333913,0.42525575,143.8391,03/29.0/2020,2000,g  9.0,4.0
# From MPC 31070
55P/Tempel-Tuttle,e,162.3692,235.4042,172.5495,10.34701,0.0296130,0.90677933,239.5609,03/29.0/2020,2000,g  9.0,4.0
# From MPC101100
56P/Slaughter-Burnham,e,8.1563,345.9784,44.0385,5.072839,0.0862636,0.50663220,116.4402,03/29.0/2020,2000,g  8.5,6.0
# From MPC 98565
57P/du Toit-Neujmin-Delporte,e,2.8500,188.7805,115.2053,3.447442,0.1539780,0.50069412,272.6284,03/29.0/2020,2000,g 12.5,6.0
# From NK 778
58P/Jackson-Neujmin,e,13.1015,159.0639,200.4640,4.082053,0.1195050,0.66253532,353.1820,03/29.0/2020,2000,g  9.0,4.0
# From MPC111774
59P/Kearns-Kwee,e,9.3412,312.8307,127.6393,4.490378,0.1035809,0.47486924,57.9461,03/29.0/2020,2000,g  7.0,6.0
# From MPEC 2015-M77
60P/Tsuchinshan,e,3.6060,267.5847,216.6893,3.514551,0.1495889,0.53750552,70.8581,03/29.0/2020,2000,g  9.0,4.0
# From MPEC 2015-Q71
61P/Shajn-Schaldach,e,5.9989,162.9888,221.9110,3.684525,0.1393580,0.42379155,229.0314,03/29.0/2020,2000,g  6.0,10.0
# From MPC109147
62P/Tsuchinshan,e,8.6069,88.3410,30.3933,3.355809,0.1603276,0.64163494,133.6665,03/29.0/2020,2000,g  8.0,10.0
# From MPC 84320
63P/Wild,e,19.7418,358.0153,169.1598,5.604138,0.0742918,0.64919508,189.2634,03/29.0/2020,2000,g 10.5,6.0
# From MPC111774
64P/Swift-Gehrels,e,8.9502,300.0003,97.1107,4.455666,0.1047937,0.68751781,53.5605,03/29.0/2020,2000,g  9.5,12.0
# From MPC104795
65P/Gunn,e,9.1836,62.0236,213.7594,3.883551,0.1287836,0.24994733,115.0445,03/29.0/2020,2000,g  5.0,6.0
# From MPC109147
66P/du Toit,e,18.6642,21.8794,257.2789,6.061286,0.0660476,0.78697870,44.8984,03/29.0/2020,2000,g  9.0,4.0
# From MPC 89011
67P/Churyumov-Gerasimenko,e,3.8940,36.9667,21.7330,3.453355,0.1535827,0.65266848,270.6322,03/29.0/2020,2000,g 11.0,4.0
# From MPC 75716
68P/Klemola,e,11.1109,175.0820,153.0632,4.948408,0.0895377,0.63748258,12.6208,03/29.0/2020,2000,g 10.0,4.0
# From MPC114607
69P/Taylor,e,22.0330,104.8308,343.5300,3.890117,0.1284577,0.41308920,48.3856,03/29.0/2020,2000,g  9.5,12.0
# From MPC 92276
70P/Kojima,e,6.5982,119.2680,1.8665,3.675077,0.1398957,0.45332942,278.2584,03/29.0/2020,2000,g 11.0,6.0
# From MPC107051
71P/Clark,e,9.4420,59.4402,209.0045,3.138109,0.1772973,0.49423581,177.7363,03/29.0/2020,2000,g  9.8,6.0
# From MPC 89011
72P/Denning-Fujikawa,e,10.9277,26.6907,346.6675,4.311876,0.1100791,0.81792861,230.7142,03/29.0/2020,2000,g 17.5,10.0
# From MPC106348
73P/Schwassmann-Wachmann,e,11.2351,69.6527,199.4333,3.093125,0.1811790,0.68573022,200.6855,03/29.0/2020,2000,g 11.5,6.0
# From MPC106348
73P-T/Schwassmann-Wachmann,e,11.2373,69.6552,199.4148,3.094685,0.1810421,0.68593341,200.5347,03/29.0/2020,2000,g 11.5,6.0
# From MPC102956
74P/Smirnova-Chernykh,e,6.6277,77.0219,90.1090,4.196692,0.1146419,0.15325214,88.6100,03/29.0/2020,2000,g  5.0,6.0
# From MPC118097
76P/West-Kohoutek-Ikemura,e,30.4567,84.1246,0.0171,3.474796,0.1521634,0.53816970,23.5648,03/29.0/2020,2000,g  8.0,12.0
# From MPC100283
77P/Longmore,e,24.3278,14.8024,196.8683,3.620061,0.1430969,0.35257062,202.5971,03/29.0/2020,2000,g  7.0,8.0
# From MPEC 2016-U66
78P/Gehrels,e,6.2486,210.5389,192.6657,3.740331,0.1362508,0.46169305,49.2336,03/29.0/2020,2000,g  9.0,4.0
# From MPC 94675
79P/du Toit-Hartley,e,3.1480,280.5252,281.8247,2.942736,0.1952437,0.61907705,109.8763,03/29.0/2020,2000,g 16.0,4.0
# From MPEC 2014-P41
80P/Peters-Hartley,e,29.9457,259.8222,339.2502,4.024297,0.1220869,0.59918063,239.8184,03/29.0/2020,2000,g  9.0,4.0
# From MPC105241
81P/Wild,e,3.2371,136.1073,41.7207,3.450061,0.1538027,0.53728683,207.4569,03/29.0/2020,2000,g  7.0,6.0
# From MPC 75717
